{
  "type": "FeatureCollection",
  "features": [
    {
      "type": "Feature",
      "properties": {
        "norad_id": 38487,
        "name": "COSMOS 2251 DEB",
        "group": "cosmos-2251-debris",
        "lat": -19.59050516623035,
        "lon": 5.425342099549653,
        "alt_km": 529.74196327346,
        "timestamp": "2025-12-23T11:34:48.558361+00:00",
        "meta_object_name": "COSMOS 2251 DEB",
        "meta_object_id": "1993-036BTX",
        "meta_epoch": "2025-12-21T18:32:44.643552",
        "meta_mean_motion": 15.1793295,
        "meta_eccentricity": 0.00206459,
        "meta_inclination": 73.9735,
        "meta_ra_of_asc_node": 14.8819,
        "meta_arg_of_pericenter": 185.3276,
        "meta_mean_anomaly": 174.7704,
        "meta_ephemeris_type": 0,
        "meta_classification_type": "U",
        "meta_norad_cat_id": 38487,
        "meta_element_set_no": 999,
        "meta_rev_at_epoch": 66937,
        "meta_bstar": 0.0019265154,
        "meta_mean_motion_dot": 0.00039496,
        "meta_mean_motion_ddot": 0,
        "tle_line1": "1 38487U 93036BTX 25355.77273893  .00039496  00000+0  19265-2 0  9992",
        "tle_line2": "2 38487  73.9735  14.8819 0020645 185.3276 174.7704 15.17932950669379"
      },
      "geometry": {
        "type": "Point",
        "coordinates": [
          5.425342099549653,
          -19.59050516623035
        ]
      }
    },
    {
      "type": "Feature",
      "properties": {
        "norad_id": 39109,
        "name": "COSMOS 2251 DEB",
        "group": "cosmos-2251-debris",
        "lat": -61.298423361007345,
        "lon": 55.742830968994966,
        "alt_km": 643.9088924233893,
        "timestamp": "2025-12-23T11:34:48.558370+00:00",
        "meta_object_name": "COSMOS 2251 DEB",
        "meta_object_id": "1993-036BTY",
        "meta_epoch": "2025-12-20T22:20:27.128256",
        "meta_mean_motion": 14.70767113,
        "meta_eccentricity": 0.00595267,
        "meta_inclination": 74.0415,
        "meta_ra_of_asc_node": 209.1834,
        "meta_arg_of_pericenter": 310.8219,
        "meta_mean_anomaly": 110.7879,
        "meta_ephemeris_type": 0,
        "meta_classification_type": "U",
        "meta_norad_cat_id": 39109,
        "meta_element_set_no": 999,
        "meta_rev_at_epoch": 65294,
        "meta_bstar": 0.00038726181,
        "meta_mean_motion_dot": 2.395e-05,
        "meta_mean_motion_ddot": 0,
        "tle_line1": "1 39109U 93036BTY 25354.93086954  .00002395  00000+0  38726-3 0  9993",
        "tle_line2": "2 39109  74.0415 209.1834 0059526 310.8219 110.7879 14.70767113652949"
      },
      "geometry": {
        "type": "Point",
        "coordinates": [
          55.742830968994966,
          -61.298423361007345
        ]
      }
    },
    {
      "type": "Feature",
      "properties": {
        "norad_id": 39110,
        "name": "COSMOS 2251 DEB",
        "group": "cosmos-2251-debris",
        "lat": 49.586950020864705,
        "lon": -159.2435095677032,
        "alt_km": 703.1408540951925,
        "timestamp": "2025-12-23T11:34:48.558378+00:00",
        "meta_object_name": "COSMOS 2251 DEB",
        "meta_object_id": "1993-036BTZ",
        "meta_epoch": "2025-12-17T22:04:59.920608",
        "meta_mean_motion": 14.72312711,
        "meta_eccentricity": 0.00972569,
        "meta_inclination": 73.9594,
        "meta_ra_of_asc_node": 51.3772,
        "meta_arg_of_pericenter": 282.7235,
        "meta_mean_anomaly": 255.0933,
        "meta_ephemeris_type": 0,
        "meta_classification_type": "U",
        "meta_norad_cat_id": 39110,
        "meta_element_set_no": 999,
        "meta_rev_at_epoch": 62560,
        "meta_bstar": 0.00028872963,
        "meta_mean_motion_dot": 1.929e-05,
        "meta_mean_motion_ddot": 0,
        "tle_line1": "1 39110U 93036BTZ 25351.92013797  .00001929  00000+0  28873-3 0  9990",
        "tle_line2": "2 39110  73.9594  51.3772 0097256 282.7235 255.0933 14.72312711625601"
      },
      "geometry": {
        "type": "Point",
        "coordinates": [
          -159.2435095677032,
          49.586950020864705
        ]
      }
    },
    {
      "type": "Feature",
      "properties": {
        "norad_id": 39111,
        "name": "COSMOS 2251 DEB",
        "group": "cosmos-2251-debris",
        "lat": -73.03217624114606,
        "lon": -51.29753976885472,
        "alt_km": 521.3639461813582,
        "timestamp": "2025-12-23T11:34:48.558387+00:00",
        "meta_object_name": "COSMOS 2251 DEB",
        "meta_object_id": "1993-036BUA",
        "meta_epoch": "2025-12-01T22:58:55.551360",
        "meta_mean_motion": 15.11912111,
        "meta_eccentricity": 0.00109111,
        "meta_inclination": 74.0059,
        "meta_ra_of_asc_node": 63.5328,
        "meta_arg_of_pericenter": 39.1207,
        "meta_mean_anomaly": 321.0773,
        "meta_ephemeris_type": 0,
        "meta_classification_type": "U",
        "meta_norad_cat_id": 39111,
        "meta_element_set_no": 999,
        "meta_rev_at_epoch": 8982,
        "meta_bstar": 0.0056424119,
        "meta_mean_motion_dot": 0.00098096,
        "meta_mean_motion_ddot": 0,
        "tle_line1": "1 39111U 93036BUA 25335.95758740  .00098096  00000+0  56424-2 0  9993",
        "tle_line2": "2 39111  74.0059  63.5328 0010911  39.1207 321.0773 15.11912111 89826"
      },
      "geometry": {
        "type": "Point",
        "coordinates": [
          -51.29753976885472,
          -73.03217624114606
        ]
      }
    },
    {
      "type": "Feature",
      "properties": {
        "norad_id": 39546,
        "name": "COSMOS 2251 DEB",
        "group": "cosmos-2251-debris",
        "lat": -39.16524865880105,
        "lon": -51.3064924518024,
        "alt_km": 578.0016653746497,
        "timestamp": "2025-12-23T11:34:48.558397+00:00",
        "meta_object_name": "COSMOS 2251 DEB",
        "meta_object_id": "1993-036BUC",
        "meta_epoch": "2025-12-21T00:40:01.263360",
        "meta_mean_motion": 14.92260519,
        "meta_eccentricity": 0.00442335,
        "meta_inclination": 73.9981,
        "meta_ra_of_asc_node": 120.1134,
        "meta_arg_of_pericenter": 279.0459,
        "meta_mean_anomaly": 80.5719,
        "meta_ephemeris_type": 0,
        "meta_classification_type": "U",
        "meta_norad_cat_id": 39546,
        "meta_element_set_no": 999,
        "meta_rev_at_epoch": 64560,
        "meta_bstar": 0.0011854764,
        "meta_mean_motion_dot": 0.00012311,
        "meta_mean_motion_ddot": 0,
        "tle_line1": "1 39546U 93036BUC 25355.02779240  .00012311  00000+0  11855-2 0  9998",
        "tle_line2": "2 39546  73.9981 120.1134 0044233 279.0459  80.5719 14.92260519645600"
      },
      "geometry": {
        "type": "Point",
        "coordinates": [
          -51.3064924518024,
          -39.16524865880105
        ]
      }
    },
    {
      "type": "Feature",
      "properties": {
        "norad_id": 39547,
        "name": "COSMOS 2251 DEB",
        "group": "cosmos-2251-debris",
        "lat": -61.12150790359942,
        "lon": -34.97075768859428,
        "alt_km": 559.2514503559705,
        "timestamp": "2025-12-23T11:34:48.558406+00:00",
        "meta_object_name": "COSMOS 2251 DEB",
        "meta_object_id": "1993-036BUD",
        "meta_epoch": "2025-12-22T17:14:01.053600",
        "meta_mean_motion": 15.0398717,
        "meta_eccentricity": 0.0005758,
        "meta_inclination": 74.0015,
        "meta_ra_of_asc_node": 357.9412,
        "meta_arg_of_pericenter": 356.7563,
        "meta_mean_anomaly": 120.4456,
        "meta_ephemeris_type": 0,
        "meta_classification_type": "U",
        "meta_norad_cat_id": 39547,
        "meta_element_set_no": 999,
        "meta_rev_at_epoch": 64175,
        "meta_bstar": 0.0032003008,
        "meta_mean_motion_dot": 0.00044473,
        "meta_mean_motion_ddot": 0,
        "tle_line1": "1 39547U 93036BUD 25356.71806775  .00044473  00000+0  32003-2 0  9992",
        "tle_line2": "2 39547  74.0015 357.9412 0005758 356.7563 120.4456 15.03987170641754"
      },
      "geometry": {
        "type": "Point",
        "coordinates": [
          -34.97075768859428,
          -61.12150790359942
        ]
      }
    },
    {
      "type": "Feature",
      "properties": {
        "norad_id": 39553,
        "name": "COSMOS 2251 DEB",
        "group": "cosmos-2251-debris",
        "lat": 48.70819157245782,
        "lon": -29.557306977782847,
        "alt_km": 765.2982694244974,
        "timestamp": "2025-12-23T11:34:48.558414+00:00",
        "meta_object_name": "COSMOS 2251 DEB",
        "meta_object_id": "1993-036BUK",
        "meta_epoch": "2025-12-19T04:26:08.787552",
        "meta_mean_motion": 13.99893274,
        "meta_eccentricity": 0.02023146,
        "meta_inclination": 74.0301,
        "meta_ra_of_asc_node": 318.8543,
        "meta_arg_of_pericenter": 93.0274,
        "meta_mean_anomaly": 269.4029,
        "meta_ephemeris_type": 0,
        "meta_classification_type": "U",
        "meta_norad_cat_id": 39553,
        "meta_element_set_no": 999,
        "meta_rev_at_epoch": 75707,
        "meta_bstar": 0.00037697212,
        "meta_mean_motion_dot": 6.38e-06,
        "meta_mean_motion_ddot": 0,
        "tle_line1": "1 39553U 93036BUK 25353.18482393  .00000638  00000+0  37697-3 0  9993",
        "tle_line2": "2 39553  74.0301 318.8543 0202314  93.0274 269.4029 13.99893274757074"
      },
      "geometry": {
        "type": "Point",
        "coordinates": [
          -29.557306977782847,
          48.70819157245782
        ]
      }
    }
  ]
}